[{"OBJECT_NAME":"STARLINK-35671","OBJECT_ID":"2025-257N","EPOCH":"2026-03-09T17:27:29.284992","MEAN_MOTION":15.30194275,"ECCENTRICITY":0.00010701,"INCLINATION":53.1603,"RA_OF_ASC_NODE":216.5387,"ARG_OF_PERICENTER":78.877,"MEAN_ANOMALY":281.2351,"EPHEMERIS_TYPE":0,"CLASSIFICATION_TYPE":"U","NORAD_CAT_ID":66392,"ELEMENT_SET_NO":999,"REV_AT_EPOCH":1974,"BSTAR":0.00098113631,"MEAN_MOTION_DOT":0.00028807,"MEAN_MOTION_DDOT":0},{"OBJECT_NAME":"COSMOS 2251 DEB","OBJECT_ID":"1993-036BTX","EPOCH":"2026-02-28T17:34:44.973408","MEAN_MOTION":15.25753352,"ECCENTRICITY":0.00216382,"INCLINATION":73.9681,"RA_OF_ASC_NODE":229.3494,"ARG_OF_PERICENTER":13.6287,"MEAN_ANOMALY":346.5492,"EPHEMERIS_TYPE":0,"CLASSIFICATION_TYPE":"U","NORAD_CAT_ID":38487,"ELEMENT_SET_NO":999,"REV_AT_EPOCH":67986,"BSTAR":0.0024802785,"MEAN_MOTION_DOT":0.00064261,"MEAN_MOTION_DDOT":0}]
